     2.100          NAVIGATION                              RINEX VERSION / TYPE
fic2rin                                 04/26/2012 00:33:04 PGM / RUN BY / DATE
                                                            END OF HEADER
15 12  4 25  6  0  0.0 -.913492403924D-04  .000000000000D+00  .000000000000D+00
     .380000000000D+02  .104187500000D+03  .477412743300D-08 -.265569836541D+01
     .539794564247D-05  .436966901179D-02  .430829823017D-05  .515355155182D+04
     .280800000000D+06  .931322574615D-08  .146868142205D+01  .111758708954D-07
     .945601789756D+00  .291625000000D+03  .533939424720D-01 -.832927551919D-08
     .222152110670D-09  .100000000000D+01  .168500000000D+04  .000000000000D+00
     .240000000000D+01  .000000000000D+00 -.102445483208D-07  .380000000000D+02
     .273606000000D+06  .400000000000D+01
16 12  4 25  6  0  0.0 -.232604332268D-03 -.136424205266D-11  .000000000000D+00
     .490000000000D+02 -.791562500000D+02  .387801867790D-08 -.842504076168D+00
    -.422447919846D-05  .664059084374D-02  .946782529354D-05  .515366110992D+04
     .280800000000D+06  .745058059692D-07 -.265632922689D+01 -.126659870148D-06
     .980484475948D+00  .202750000000D+03 -.400883719216D-01 -.767960560068D-08
     .234652631367D-09  .100000000000D+01  .168500000000D+04  .000000000000D+00
     .240000000000D+01  .000000000000D+00 -.977888703346D-08  .490000000000D+02
     .273606000000D+06  .400000000000D+01
17 12  4 25  6  0  0.0  .133397523314D-03 -.272848410532D-11  .000000000000D+00
     .280000000000D+02  .123750000000D+02  .475876965043D-08 -.182245014121D+01
     .704079866409D-06  .731980346609D-02  .722147524357D-05  .515366661072D+04
     .280800000000D+06  .856816768646D-07 -.161572921045D+01 -.186264514923D-07
     .962362999562D+00  .240281250000D+03 -.230215703932D+01 -.796211736843D-08
     .480734310228D-09  .100000000000D+01  .168500000000D+04  .000000000000D+00
     .240000000000D+01  .000000000000D+00 -.107102096081D-07  .280000000000D+02
     .273606000000D+06  .400000000000D+01
18 12  4 25  6  0  0.0  .192628707737D-03  .181898940355D-11  .000000000000D+00
     .290000000000D+02  .572500000000D+02  .509771234018D-08 -.338075697021D+00
     .300072133541D-05  .131424437277D-01  .980496406555D-05  .515369120789D+04
     .280800000000D+06 -.186264514923D-07  .452958049601D+00  .145286321640D-06
     .930387933272D+00  .175531250000D+03 -.218545122518D+01 -.844320883640D-08
    -.387158983869D-09  .100000000000D+01  .168500000000D+04  .000000000000D+00
     .240000000000D+01  .000000000000D+00 -.107102096081D-07  .290000000000D+02
     .273606000000D+06  .400000000000D+01
19 12  4 25  6  0  0.0 -.258943997324D-03 -.375166564481D-11  .000000000000D+00
     .230000000000D+02  .821875000000D+01  .480627162908D-08 -.266136526532D+01
     .385567545891D-06  .817121565342D-02  .745989382267D-05  .515377379417D+04
     .280800000000D+06 -.132247805595D-06 -.156257847226D+01 -.121071934700D-06
     .959734725329D+00  .237625000000D+03  .149689748230D+00 -.793068748782D-08
     .410374236591D-09  .100000000000D+01  .168500000000D+04  .000000000000D+00
     .240000000000D+01  .000000000000D+00 -.144354999065D-07  .230000000000D+02
     .273606000000D+06  .400000000000D+01
20 12  4 25  6  0  0.0  .632368028164D-04  .000000000000D+00  .000000000000D+00
     .510000000000D+02  .369375000000D+02  .502806658201D-08  .151391584239D-01
     .193528831005D-05  .504153419752D-02  .101067125797D-04  .515372009087D+04
     .280800000000D+06 -.111758708954D-06  .399233470088D+00  .819563865662D-07
     .930843709788D+00  .168281250000D+03  .129471104753D+01 -.823820029697D-08
    -.361443627006D-09  .100000000000D+01  .168500000000D+04  .000000000000D+00
     .240000000000D+01  .000000000000D+00 -.791624188423D-08  .510000000000D+02
     .273606000000D+06  .400000000000D+01
21 12  4 25  6  0  0.0 -.219515059143D-03 -.250111042988D-11  .000000000000D+00
     .920000000000D+02 -.111250000000D+02  .564594946217D-08  .720105386548D+00
    -.258907675743D-06  .190393920057D-01  .652112066746D-05  .515361499214D+04
     .280800000000D+06 -.214204192162D-06 -.597756166967D+00  .152736902237D-06
     .931459109685D+00  .242187500000D+03 -.226188477420D+01 -.874286417539D-08
    -.535022285826D-09  .100000000000D+01  .168500000000D+04  .000000000000D+00
     .240000000000D+01  .000000000000D+00 -.111758708954D-07  .920000000000D+02
     .273606000000D+06  .400000000000D+01
22 12  4 25  6  0  0.0  .143565703183D-03  .227373675443D-12  .000000000000D+00
     .580000000000D+02  .517500000000D+02  .503235247482D-08 -.116493817994D+01
     .253506004810D-05  .596246076748D-02  .102724879980D-04  .515368380737D+04
     .280800000000D+06  .502914190292D-07  .456402449257D+00  .134110450745D-06
     .928104721916D+00  .163906250000D+03 -.201574970852D+01 -.820534178542D-08
    -.442161274935D-09  .100000000000D+01  .168500000000D+04  .000000000000D+00
     .340000000000D+01  .000000000000D+00 -.167638063431D-07  .580000000000D+02
     .273606000000D+06  .400000000000D+01
23 12  4 25  6  0  0.0  .211514998227D-03 -.363797880709D-11  .000000000000D+00
     .870000000000D+02  .930937500000D+02  .447590072495D-08 -.305412490013D+01
     .482425093651D-05  .776559684891D-02  .488758087158D-05  .515364398766D+04
     .280800000000D+06 -.894069671631D-07  .150394077015D+01 -.372529029846D-07
     .960305664220D+00  .285781250000D+03 -.302217807986D+01 -.807569352791D-08
     .195722438339D-09  .100000000000D+01  .168500000000D+04  .000000000000D+00
     .240000000000D+01  .000000000000D+00 -.200234353542D-07  .870000000000D+02
     .273606000000D+06  .400000000000D+01
25 12  4 25  6  0  0.0  .333152711391D-04  .341060513165D-12  .000000000000D+00
     .410000000000D+02 -.850312500000D+02  .419874632321D-08  .261525892826D+00
    -.444613397121D-05  .156664894894D-02  .985711812973D-05  .515373105621D+04
     .280800000000D+06  .111758708954D-07 -.270813449445D+01  .931322574615D-08
     .968499949682D+00  .196031250000D+03  .627407962814D+00 -.783318342639D-08
     .138934358602D-09  .100000000000D+01  .168500000000D+04  .000000000000D+00
     .240000000000D+01  .000000000000D+00  .558793544769D-08  .410000000000D+02
     .273606000000D+06  .400000000000D+01
26 12  4 25  6  0  0.0 -.350460410118D-03 -.526370058651D-10  .000000000000D+00
     .360000000000D+02  .868125000000D+02  .387194699642D-08  .308197829713D+01
     .442564487457D-05  .209601062816D-01  .341050326824D-05  .515366304398D+04
     .280800000000D+06  .178813934326D-06  .157603259190D+01 -.135973095894D-06
     .983387161428D+00  .323718750000D+03  .118980244617D+01 -.760460247650D-08
     .190365072327D-09  .100000000000D+01  .168500000000D+04  .000000000000D+00
     .240000000000D+01  .000000000000D+00 -.605359673500D-08  .360000000000D+02
     .273606000000D+06  .400000000000D+01
27 12  4 25  6  0  0.0  .381077174097D-03  .397903932026D-11  .000000000000D+00
     .430000000000D+02 -.570937500000D+02  .398159442082D-08 -.229273682265D+01
    -.240281224251D-05  .217405954609D-01  .266730785370D-05  .515374398232D+04
     .280800000000D+06  .689178705215D-07  .250028229939D+01  .339001417160D-06
     .982001260134D+00  .334843750000D+03 -.109346805010D+01 -.780675375406D-08
    -.464305054455D-10  .100000000000D+01  .168500000000D+04  .000000000000D+00
     .340000000000D+01  .000000000000D+00 -.419095158577D-08  .430000000000D+02
     .273606000000D+06  .400000000000D+01
28 12  4 25  6  0  0.0  .137150287628D-03  .409272615798D-11  .000000000000D+00
     .830000000000D+02 -.598750000000D+02  .396337937637D-08 -.124881471968D+01
    -.279024243355D-05  .178451287793D-01  .989623367786D-05  .515371458626D+04
     .280800000000D+06  .186264514923D-07 -.264955216087D+01  .461935997009D-06
     .978834450647D+00  .198125000000D+03 -.182786920817D+01 -.775389440940D-08
     .201794119821D-09  .100000000000D+01  .168500000000D+04  .000000000000D+00
     .240000000000D+01  .630000000000D+02 -.107102096081D-07  .830000000000D+02
     .273606000000D+06  .400000000000D+01
29 12  4 25  6  0  0.0  .306653324515D-03  .363797880709D-11  .000000000000D+00
     .980000000000D+02  .756250000000D+01  .482484383125D-08  .976726488099D+00
     .404193997383D-06  .231909076683D-02  .742077827454D-05  .515358892059D+04
     .280800000000D+06  .000000000000D+00 -.160717186969D+01 -.223517417908D-07
     .962891954166D+00  .240500000000D+03 -.115041119275D+01 -.803962059675D-08
     .450733060555D-09  .100000000000D+01  .168500000000D+04  .000000000000D+00
     .240000000000D+01  .000000000000D+00 -.931322574615D-08  .980000000000D+02
     .273606000000D+06  .400000000000D+01
30 12  4 25  6  0  0.0 -.148097518831D-03 -.181898940355D-10  .000000000000D+00
     .490000000000D+02 -.938437500000D+02  .425374861428D-08 -.194190288540D+01
    -.462494790554D-05  .109860880766D-01  .879913568497D-05  .515364912987D+04
     .280800000000D+06  .184401869774D-06 -.279868082735D+01  .145286321640D-06
     .959775726534D+00  .203000000000D+03  .155691011528D+01 -.777710966212D-08
     .123219418298D-09  .100000000000D+01  .168500000000D+04  .000000000000D+00
     .485000000000D+01  .000000000000D+00 -.419095158577D-08  .490000000000D+02
     .273606000000D+06  .400000000000D+01
31 12  4 25  6  0  0.0  .234999228269D-03  .420641299570D-11  .000000000000D+00
     .170000000000D+02 -.578437500000D+02  .407302680077D-08  .162934523416D+01
    -.298395752907D-05  .784891110379D-02  .276230275631D-05  .515363570976D+04
     .280800000000D+06  .135973095894D-06  .255580453458D+01  .614672899246D-07
     .980889904676D+00  .334500000000D+03 -.867734526889D+00 -.802533428739D-08
    -.122147945095D-09  .100000000000D+01  .168500000000D+04  .000000000000D+00
     .240000000000D+01  .000000000000D+00 -.130385160446D-07  .170000000000D+02
     .273606000000D+06  .400000000000D+01
